CCSDS_OMM_VERS = 2.0
CREATION_DATE  = 
ORIGINATOR     = 

OBJECT_NAME    = STARLINK-37076
OBJECT_ID      = 2026-050G
CENTER_NAME    = EARTH
REF_FRAME      = TEME
TIME_SYSTEM    = UTC
MEAN_ELEMENT_THEORY = SGP/SGP4

EPOCH          = 2026-03-30T14:38:30.752160
MEAN_MOTION    = 15.80955317
ECCENTRICITY   = .00012327
INCLINATION    = 53.1588
RA_OF_ASC_NODE = 176.9447
ARG_OF_PERICENTER = 81.0799
MEAN_ANOMALY   = 279.0363

EPHEMERIS_TYPE = 0
CLASSIFICATION_TYPE = U
NORAD_CAT_ID   = 68173
ELEMENT_SET_NO = 999
REV_AT_EPOCH   = 378
BSTAR          = .12290161E-2
MEAN_MOTION_DOT = .249967E-2
MEAN_MOTION_DDOT = 0

CCSDS_OMM_VERS = 2.0
CREATION_DATE  = 
ORIGINATOR     = 

OBJECT_NAME    = STARLINK-37078
OBJECT_ID      = 2026-050H
CENTER_NAME    = EARTH
REF_FRAME      = TEME
TIME_SYSTEM    = UTC
MEAN_ELEMENT_THEORY = SGP/SGP4

EPOCH          = 2026-03-30T14:37:26.001408
MEAN_MOTION    = 15.80942276
ECCENTRICITY   = .00020045
INCLINATION    = 53.1589
RA_OF_ASC_NODE = 176.9396
ARG_OF_PERICENTER = 84.5907
MEAN_ANOMALY   = 275.5344

EPHEMERIS_TYPE = 0
CLASSIFICATION_TYPE = U
NORAD_CAT_ID   = 68174
ELEMENT_SET_NO = 999
REV_AT_EPOCH   = 378
BSTAR          = .12308684E-2
MEAN_MOTION_DOT = .250205E-2
MEAN_MOTION_DDOT = 0

CCSDS_OMM_VERS = 2.0
CREATION_DATE  = 
ORIGINATOR     = 

OBJECT_NAME    = STARLINK-36886
OBJECT_ID      = 2026-050J
CENTER_NAME    = EARTH
REF_FRAME      = TEME
TIME_SYSTEM    = UTC
MEAN_ELEMENT_THEORY = SGP/SGP4

EPOCH          = 2026-03-30T13:05:19.207680
MEAN_MOTION    = 15.80976308
ECCENTRICITY   = .00023871
INCLINATION    = 53.1590
RA_OF_ASC_NODE = 177.2511
ARG_OF_PERICENTER = 17.3873
MEAN_ANOMALY   = 342.7231

EPHEMERIS_TYPE = 0
CLASSIFICATION_TYPE = U
NORAD_CAT_ID   = 68175
ELEMENT_SET_NO = 999
REV_AT_EPOCH   = 377
BSTAR          = .19550285E-2
MEAN_MOTION_DOT = .405771E-2
MEAN_MOTION_DDOT = 0

CCSDS_OMM_VERS = 2.0
CREATION_DATE  = 
ORIGINATOR     = 

OBJECT_NAME    = STARLINK-36905
OBJECT_ID      = 2026-050K
CENTER_NAME    = EARTH
REF_FRAME      = TEME
TIME_SYSTEM    = UTC
MEAN_ELEMENT_THEORY = SGP/SGP4

EPOCH          = 2026-03-30T14:35:16.272672
MEAN_MOTION    = 15.80942280
ECCENTRICITY   = .00012381
INCLINATION    = 53.1587
RA_OF_ASC_NODE = 176.9297
ARG_OF_PERICENTER = 65.4048
MEAN_ANOMALY   = 294.7104

EPHEMERIS_TYPE = 0
CLASSIFICATION_TYPE = U
NORAD_CAT_ID   = 68176
ELEMENT_SET_NO = 999
REV_AT_EPOCH   = 378
BSTAR          = .10688541E-2
MEAN_MOTION_DOT = .216316E-2
MEAN_MOTION_DDOT = 0

CCSDS_OMM_VERS = 2.0
CREATION_DATE  = 
ORIGINATOR     = 

OBJECT_NAME    = STARLINK-36668
OBJECT_ID      = 2026-050L
CENTER_NAME    = EARTH
REF_FRAME      = TEME
TIME_SYSTEM    = UTC
MEAN_ELEMENT_THEORY = SGP/SGP4

EPOCH          = 2026-03-30T14:34:11.401824
MEAN_MOTION    = 15.80945154
ECCENTRICITY   = .00010294
INCLINATION    = 53.1592
RA_OF_ASC_NODE = 176.9244
ARG_OF_PERICENTER = 75.2164
MEAN_ANOMALY   = 284.8972

EPHEMERIS_TYPE = 0
CLASSIFICATION_TYPE = U
NORAD_CAT_ID   = 68177
ELEMENT_SET_NO = 999
REV_AT_EPOCH   = 378
BSTAR          = .99074999E-3
MEAN_MOTION_DOT = .200104E-2
MEAN_MOTION_DDOT = 0

CCSDS_OMM_VERS = 2.0
CREATION_DATE  = 
ORIGINATOR     = 

OBJECT_NAME    = STARLINK-36677
OBJECT_ID      = 2026-050M
CENTER_NAME    = EARTH
REF_FRAME      = TEME
TIME_SYSTEM    = UTC
MEAN_ELEMENT_THEORY = SGP/SGP4

EPOCH          = 2026-03-30T11:31:02.080416
MEAN_MOTION    = 15.80974709
ECCENTRICITY   = .00013924
INCLINATION    = 53.1593
RA_OF_ASC_NODE = 177.5522
ARG_OF_PERICENTER = 97.0606
MEAN_ANOMALY   = 263.0575

EPHEMERIS_TYPE = 0
CLASSIFICATION_TYPE = U
NORAD_CAT_ID   = 68178
ELEMENT_SET_NO = 999
REV_AT_EPOCH   = 376
BSTAR          = .14212007E-2
MEAN_MOTION_DOT = .290811E-2
MEAN_MOTION_DDOT = 0

CCSDS_OMM_VERS = 2.0
CREATION_DATE  = 
ORIGINATOR     = 

OBJECT_NAME    = STARLINK-37052
OBJECT_ID      = 2026-050N
CENTER_NAME    = EARTH
REF_FRAME      = TEME
TIME_SYSTEM    = UTC
MEAN_ELEMENT_THEORY = SGP/SGP4

EPOCH          = 2026-03-30T13:00:59.650848
MEAN_MOTION    = 15.80918346
ECCENTRICITY   = .00008218
INCLINATION    = 53.1591
RA_OF_ASC_NODE = 177.2310
ARG_OF_PERICENTER = 74.9166
MEAN_ANOMALY   = 285.1948

EPHEMERIS_TYPE = 0
CLASSIFICATION_TYPE = U
NORAD_CAT_ID   = 68179
ELEMENT_SET_NO = 999
REV_AT_EPOCH   = 377
BSTAR          = .11196139E-2
MEAN_MOTION_DOT = .226647E-2
MEAN_MOTION_DDOT = 0

CCSDS_OMM_VERS = 2.0
CREATION_DATE  = 
ORIGINATOR     = 

OBJECT_NAME    = STARLINK-37035
OBJECT_ID      = 2026-050P
CENTER_NAME    = EARTH
REF_FRAME      = TEME
TIME_SYSTEM    = UTC
MEAN_ELEMENT_THEORY = SGP/SGP4

EPOCH          = 2026-03-30T12:59:54.704832
MEAN_MOTION    = 15.80954188
ECCENTRICITY   = .00007542
INCLINATION    = 53.1591
RA_OF_ASC_NODE = 177.2263
ARG_OF_PERICENTER = 61.5856
MEAN_ANOMALY   = 298.5243

EPHEMERIS_TYPE = 0
CLASSIFICATION_TYPE = U
NORAD_CAT_ID   = 68180
ELEMENT_SET_NO = 999
REV_AT_EPOCH   = 377
BSTAR          = .11573904E-2
MEAN_MOTION_DOT = .234935E-2
MEAN_MOTION_DDOT = 0

CCSDS_OMM_VERS = 2.0
CREATION_DATE  = 
ORIGINATOR     = 

OBJECT_NAME    = STARLINK-37032
OBJECT_ID      = 2026-050Q
CENTER_NAME    = EARTH
REF_FRAME      = TEME
TIME_SYSTEM    = UTC
MEAN_ELEMENT_THEORY = SGP/SGP4

EPOCH          = 2026-03-30T14:29:52.090368
MEAN_MOTION    = 15.80970852
ECCENTRICITY   = .00009432
INCLINATION    = 53.1591
RA_OF_ASC_NODE = 176.9043
ARG_OF_PERICENTER = 80.6198
MEAN_ANOMALY   = 279.4931

EPHEMERIS_TYPE = 0
CLASSIFICATION_TYPE = U
NORAD_CAT_ID   = 68181
ELEMENT_SET_NO = 999
REV_AT_EPOCH   = 378
BSTAR          = .12857295E-2
MEAN_MOTION_DOT = .262096E-2
MEAN_MOTION_DDOT = 0

CCSDS_OMM_VERS = 2.0
CREATION_DATE  = 
ORIGINATOR     = 

OBJECT_NAME    = STARLINK-37082
OBJECT_ID      = 2026-050R
CENTER_NAME    = EARTH
REF_FRAME      = TEME
TIME_SYSTEM    = UTC
MEAN_ELEMENT_THEORY = SGP/SGP4

EPOCH          = 2026-03-30T14:28:47.369856
MEAN_MOTION    = 15.80942360
ECCENTRICITY   = .00010214
INCLINATION    = 53.1590
RA_OF_ASC_NODE = 176.8992
ARG_OF_PERICENTER = 96.7490
MEAN_ANOMALY   = 263.3649

EPHEMERIS_TYPE = 0
CLASSIFICATION_TYPE = U
NORAD_CAT_ID   = 68182
ELEMENT_SET_NO = 999
REV_AT_EPOCH   = 378
BSTAR          = .10729502E-2
MEAN_MOTION_DOT = .21717E-2
MEAN_MOTION_DDOT = 0

CCSDS_OMM_VERS = 2.0
CREATION_DATE  = 
ORIGINATOR     = 

OBJECT_NAME    = STARLINK-37102
OBJECT_ID      = 2026-050S
CENTER_NAME    = EARTH
REF_FRAME      = TEME
TIME_SYSTEM    = UTC
MEAN_ELEMENT_THEORY = SGP/SGP4

EPOCH          = 2026-03-30T14:27:42.549984
MEAN_MOTION    = 15.80937724
ECCENTRICITY   = .00011992
INCLINATION    = 53.1591
RA_OF_ASC_NODE = 176.8940
ARG_OF_PERICENTER = 73.4729
MEAN_ANOMALY   = 286.6425

EPHEMERIS_TYPE = 0
CLASSIFICATION_TYPE = U
NORAD_CAT_ID   = 68183
ELEMENT_SET_NO = 999
REV_AT_EPOCH   = 378
BSTAR          = .94042454E-3
MEAN_MOTION_DOT = .189606E-2
MEAN_MOTION_DDOT = 0

CCSDS_OMM_VERS = 2.0
CREATION_DATE  = 
ORIGINATOR     = 

OBJECT_NAME    = STARLINK-36964
OBJECT_ID      = 2026-050T
CENTER_NAME    = EARTH
REF_FRAME      = TEME
TIME_SYSTEM    = UTC
MEAN_ELEMENT_THEORY = SGP/SGP4

EPOCH          = 2026-03-30T12:55:35.522976
MEAN_MOTION    = 15.80970211
ECCENTRICITY   = .00007987
INCLINATION    = 53.1589
RA_OF_ASC_NODE = 177.2056
ARG_OF_PERICENTER = 62.4665
MEAN_ANOMALY   = 297.6439

EPHEMERIS_TYPE = 0
CLASSIFICATION_TYPE = U
NORAD_CAT_ID   = 68184
ELEMENT_SET_NO = 999
REV_AT_EPOCH   = 377
BSTAR          = .15299699E-2
MEAN_MOTION_DOT = .313914E-2
MEAN_MOTION_DDOT = 0

