STARLINK-37076          
1 68173U 26050G   26089.61007815  .00249967  00000+0  12290-2 0  9993
2 68173  53.1588 176.9447 0001232  81.0799 279.0363 15.80955317  3789
STARLINK-37078          
1 68174U 26050H   26089.60932872  .00250205  00000+0  12309-2 0  9991
2 68174  53.1589 176.9396 0002004  84.5907 275.5344 15.80942276  3781
STARLINK-36886          
1 68175U 26050J   26089.54536120  .00405771  00000+0  19550-2 0  9996
2 68175  53.1590 177.2511 0002387  17.3873 342.7231 15.80976308  3771
STARLINK-36905          
1 68176U 26050K   26089.60782723  .00216316  00000+0  10689-2 0  9995
2 68176  53.1587 176.9297 0001238  65.4048 294.7104 15.80942280  3785
STARLINK-36668          
1 68177U 26050L   26089.60707641  .00200104  00000+0  99075-3 0  9997
2 68177  53.1592 176.9244 0001029  75.2164 284.8972 15.80945154  3786
STARLINK-36677          
1 68178U 26050M   26089.47988519  .00290811  00000+0  14212-2 0  9991
2 68178  53.1593 177.5522 0001392  97.0606 263.0575 15.80974709  3764
STARLINK-37052          
1 68179U 26050N   26089.54235707  .00226647  00000+0  11196-2 0  9998
2 68179  53.1591 177.2310 0000821  74.9166 285.1948 15.80918346  3771
STARLINK-37035          
1 68180U 26050P   26089.54160538  .00234935  00000+0  11574-2 0  9998
2 68180  53.1591 177.2263 0000754  61.5856 298.5243 15.80954188  3773
STARLINK-37032          
1 68181U 26050Q   26089.60407512  .00262096  00000+0  12857-2 0  9996
2 68181  53.1591 176.9043 0000943  80.6198 279.4931 15.80970852  3786
STARLINK-37082          
1 68182U 26050R   26089.60332604  .00217170  00000+0  10730-2 0  9997
2 68182  53.1590 176.8992 0001021  96.7490 263.3649 15.80942360  3780
STARLINK-37102          
1 68183U 26050S   26089.60257581  .00189606  00000+0  94042-3 0  9999
2 68183  53.1591 176.8940 0001199  73.4729 286.6425 15.80937724  3786
STARLINK-36964          
1 68184U 26050T   26089.53860559  .00313914  00000+0  15300-2 0  9997
2 68184  53.1589 177.2056 0000798  62.4665 297.6439 15.80970211  3772
